[
  {
    "COMMENT": "GENERATED VIA SPACETRACK.ORG API",
    "ORIGINATOR": "18 SPCS",
    "NORAD_CAT_ID": "46984",
    "OBJECT_NAME": "S6 MICHAEL FREILICH",
    "OBJECT_TYPE": "PAYLOAD",
    "CLASSIFICATION_TYPE": "U",
    "INTLDES": "20086A",
    "EPOCH": "2022-04-09 08:14:56",
    "EPOCH_MICROSECONDS": "747904",
    "MEAN_MOTION": "12.80930152",
    "ECCENTRICITY": "0.000795",
    "INCLINATION": "66.0419",
    "RA_OF_ASC_NODE": "72.5667",
    "ARG_OF_PERICENTER": "266.9412",
    "MEAN_ANOMALY": "93.0692",
    "EPHEMERIS_TYPE": "0",
    "ELEMENT_SET_NO": "999",
    "REV_AT_EPOCH": "6451",
    "BSTAR": "0",
    "MEAN_MOTION_DOT": "-0.00000061",
    "MEAN_MOTION_DDOT": "0",
    "FILE": "3394954",
    "TLE_LINE0": "0 S6 MICHAEL FREILICH",
    "TLE_LINE1": "1 46984U 20086A   22099.34371236 -.00000061  00000-0  00000+0 0  9995",
    "TLE_LINE2": "2 46984  66.0419  72.5667 0007950 266.9412  93.0692 12.80930152 64519",
    "OBJECT_ID": "2020-086A",
    "OBJECT_NUMBER": "46984",
    "SEMIMAJOR_AXIS": "7715.870",
    "PERIOD": "112.418",
    "APOGEE": "1343.869",
    "PERIGEE": "1331.600",
    "DECAYED": "0"
  },
  {
    "COMMENT": "GENERATED VIA SPACETRACK.ORG API",
    "ORIGINATOR": "18 SPCS",
    "NORAD_CAT_ID": "46984",
    "OBJECT_NAME": "S6 MICHAEL FREILICH",
    "OBJECT_TYPE": "PAYLOAD",
    "CLASSIFICATION_TYPE": "U",
    "INTLDES": "20086A",
    "EPOCH": "2022-04-09 15:44:39",
    "EPOCH_MICROSECONDS": "793632",
    "MEAN_MOTION": "12.80930147",
    "ECCENTRICITY": "0.0007948",
    "INCLINATION": "66.0419",
    "RA_OF_ASC_NODE": "71.9182",
    "ARG_OF_PERICENTER": "266.8019",
    "MEAN_ANOMALY": "93.2087",
    "EPHEMERIS_TYPE": "0",
    "ELEMENT_SET_NO": "999",
    "REV_AT_EPOCH": "6455",
    "BSTAR": "0",
    "MEAN_MOTION_DOT": "-0.00000061",
    "MEAN_MOTION_DDOT": "0",
    "FILE": "3394972",
    "TLE_LINE0": "0 S6 MICHAEL FREILICH",
    "TLE_LINE1": "1 46984U 20086A   22099.65601613 -.00000061  00000-0  00000+0 0  9994",
    "TLE_LINE2": "2 46984  66.0419  71.9182 0007948 266.8019  93.2087 12.80930147 64551",
    "OBJECT_ID": "2020-086A",
    "OBJECT_NUMBER": "46984",
    "SEMIMAJOR_AXIS": "7715.870",
    "PERIOD": "112.418",
    "APOGEE": "1343.867",
    "PERIGEE": "1331.602",
    "DECAYED": "0"
  },
  {
    "COMMENT": "GENERATED VIA SPACETRACK.ORG API",
    "ORIGINATOR": "18 SPCS",
    "NORAD_CAT_ID": "46984",
    "OBJECT_NAME": "S6 MICHAEL FREILICH",
    "OBJECT_TYPE": "PAYLOAD",
    "CLASSIFICATION_TYPE": "U",
    "INTLDES": "20086A",
    "EPOCH": "2022-04-09 15:44:39",
    "EPOCH_MICROSECONDS": "793632",
    "MEAN_MOTION": "12.80930147",
    "ECCENTRICITY": "0.0007948",
    "INCLINATION": "66.0419",
    "RA_OF_ASC_NODE": "71.9182",
    "ARG_OF_PERICENTER": "266.8019",
    "MEAN_ANOMALY": "93.2087",
    "EPHEMERIS_TYPE": "0",
    "ELEMENT_SET_NO": "999",
    "REV_AT_EPOCH": "6455",
    "BSTAR": "0",
    "MEAN_MOTION_DOT": "-0.00000061",
    "MEAN_MOTION_DDOT": "0",
    "FILE": "3394974",
    "TLE_LINE0": "0 S6 MICHAEL FREILICH",
    "TLE_LINE1": "1 46984U 20086A   22099.65601613 -.00000061  00000-0  00000+0 0  9994",
    "TLE_LINE2": "2 46984  66.0419  71.9182 0007948 266.8019  93.2087 12.80930147 64551",
    "OBJECT_ID": "2020-086A",
    "OBJECT_NUMBER": "46984",
    "SEMIMAJOR_AXIS": "7715.870",
    "PERIOD": "112.418",
    "APOGEE": "1343.867",
    "PERIGEE": "1331.602",
    "DECAYED": "0"
  },
  {
    "COMMENT": "GENERATED VIA SPACETRACK.ORG API",
    "ORIGINATOR": "18 SPCS",
    "NORAD_CAT_ID": "46984",
    "OBJECT_NAME": "S6 MICHAEL FREILICH",
    "OBJECT_TYPE": "PAYLOAD",
    "CLASSIFICATION_TYPE": "U",
    "INTLDES": "20086A",
    "EPOCH": "2022-04-09 15:44:39",
    "EPOCH_MICROSECONDS": "793632",
    "MEAN_MOTION": "12.80930147",
    "ECCENTRICITY": "0.0007948",
    "INCLINATION": "66.0419",
    "RA_OF_ASC_NODE": "71.9182",
    "ARG_OF_PERICENTER": "266.8019",
    "MEAN_ANOMALY": "93.2087",
    "EPHEMERIS_TYPE": "0",
    "ELEMENT_SET_NO": "999",
    "REV_AT_EPOCH": "6455",
    "BSTAR": "0",
    "MEAN_MOTION_DOT": "-0.00000061",
    "MEAN_MOTION_DDOT": "0",
    "FILE": "3394976",
    "TLE_LINE0": "0 S6 MICHAEL FREILICH",
    "TLE_LINE1": "1 46984U 20086A   22099.65601613 -.00000061  00000-0  00000+0 0  9994",
    "TLE_LINE2": "2 46984  66.0419  71.9182 0007948 266.8019  93.2087 12.80930147 64551",
    "OBJECT_ID": "2020-086A",
    "OBJECT_NUMBER": "46984",
    "SEMIMAJOR_AXIS": "7715.870",
    "PERIOD": "112.418",
    "APOGEE": "1343.867",
    "PERIGEE": "1331.602",
    "DECAYED": "0"
  },
  {
    "COMMENT": "GENERATED VIA SPACETRACK.ORG API",
    "ORIGINATOR": "18 SPCS",
    "NORAD_CAT_ID": "46984",
    "OBJECT_NAME": "S6 MICHAEL FREILICH",
    "OBJECT_TYPE": "PAYLOAD",
    "CLASSIFICATION_TYPE": "U",
    "INTLDES": "20086A",
    "EPOCH": "2022-04-09 15:44:39",
    "EPOCH_MICROSECONDS": "793632",
    "MEAN_MOTION": "12.80930147",
    "ECCENTRICITY": "0.0007948",
    "INCLINATION": "66.0419",
    "RA_OF_ASC_NODE": "71.9182",
    "ARG_OF_PERICENTER": "266.8019",
    "MEAN_ANOMALY": "93.2087",
    "EPHEMERIS_TYPE": "0",
    "ELEMENT_SET_NO": "999",
    "REV_AT_EPOCH": "6455",
    "BSTAR": "0",
    "MEAN_MOTION_DOT": "-0.00000061",
    "MEAN_MOTION_DDOT": "0",
    "FILE": "3394977",
    "TLE_LINE0": "0 S6 MICHAEL FREILICH",
    "TLE_LINE1": "1 46984U 20086A   22099.65601613 -.00000061  00000-0  00000+0 0  9994",
    "TLE_LINE2": "2 46984  66.0419  71.9182 0007948 266.8019  93.2087 12.80930147 64551",
    "OBJECT_ID": "2020-086A",
    "OBJECT_NUMBER": "46984",
    "SEMIMAJOR_AXIS": "7715.870",
    "PERIOD": "112.418",
    "APOGEE": "1343.867",
    "PERIGEE": "1331.602",
    "DECAYED": "0"
  },
  {
    "COMMENT": "GENERATED VIA SPACETRACK.ORG API",
    "ORIGINATOR": "18 SPCS",
    "NORAD_CAT_ID": "46984",
    "OBJECT_NAME": "S6 MICHAEL FREILICH",
    "OBJECT_TYPE": "PAYLOAD",
    "CLASSIFICATION_TYPE": "U",
    "INTLDES": "20086A",
    "EPOCH": "2022-04-09 15:44:39",
    "EPOCH_MICROSECONDS": "793632",
    "MEAN_MOTION": "12.80930147",
    "ECCENTRICITY": "0.0007948",
    "INCLINATION": "66.0419",
    "RA_OF_ASC_NODE": "71.9182",
    "ARG_OF_PERICENTER": "266.8019",
    "MEAN_ANOMALY": "93.2087",
    "EPHEMERIS_TYPE": "0",
    "ELEMENT_SET_NO": "999",
    "REV_AT_EPOCH": "6455",
    "BSTAR": "0",
    "MEAN_MOTION_DOT": "-0.00000061",
    "MEAN_MOTION_DDOT": "0",
    "FILE": "3394981",
    "TLE_LINE0": "0 S6 MICHAEL FREILICH",
    "TLE_LINE1": "1 46984U 20086A   22099.65601613 -.00000061  00000-0  00000+0 0  9994",
    "TLE_LINE2": "2 46984  66.0419  71.9182 0007948 266.8019  93.2087 12.80930147 64551",
    "OBJECT_ID": "2020-086A",
    "OBJECT_NUMBER": "46984",
    "SEMIMAJOR_AXIS": "7715.870",
    "PERIOD": "112.418",
    "APOGEE": "1343.867",
    "PERIGEE": "1331.602",
    "DECAYED": "0"
  },
  {
    "COMMENT": "GENERATED VIA SPACETRACK.ORG API",
    "ORIGINATOR": "18 SPCS",
    "NORAD_CAT_ID": "46984",
    "OBJECT_NAME": "S6 MICHAEL FREILICH",
    "OBJECT_TYPE": "PAYLOAD",
    "CLASSIFICATION_TYPE": "U",
    "INTLDES": "20086A",
    "EPOCH": "2022-04-10 06:44:05",
    "EPOCH_MICROSECONDS": "885088",
    "MEAN_MOTION": "12.80930136",
    "ECCENTRICITY": "0.0007929",
    "INCLINATION": "66.0422",
    "RA_OF_ASC_NODE": "70.6209",
    "ARG_OF_PERICENTER": "266.7933",
    "MEAN_ANOMALY": "93.2171",
    "EPHEMERIS_TYPE": "0",
    "ELEMENT_SET_NO": "999",
    "REV_AT_EPOCH": "6463",
    "BSTAR": "0",
    "MEAN_MOTION_DOT": "-0.00000061",
    "MEAN_MOTION_DDOT": "0",
    "FILE": "3395796",
    "TLE_LINE0": "0 S6 MICHAEL FREILICH",
    "TLE_LINE1": "1 46984U 20086A   22100.28062367 -.00000061  00000-0  00000+0 0  9993",
    "TLE_LINE2": "2 46984  66.0422  70.6209 0007929 266.7933  93.2171 12.80930136 64635",
    "OBJECT_ID": "2020-086A",
    "OBJECT_NUMBER": "46984",
    "SEMIMAJOR_AXIS": "7715.870",
    "PERIOD": "112.418",
    "APOGEE": "1343.853",
    "PERIGEE": "1331.617",
    "DECAYED": "0"
  },
  {
    "COMMENT": "GENERATED VIA SPACETRACK.ORG API",
    "ORIGINATOR": "18 SPCS",
    "NORAD_CAT_ID": "46984",
    "OBJECT_NAME": "S6 MICHAEL FREILICH",
    "OBJECT_TYPE": "PAYLOAD",
    "CLASSIFICATION_TYPE": "U",
    "INTLDES": "20086A",
    "EPOCH": "2022-04-10 06:44:05",
    "EPOCH_MICROSECONDS": "885088",
    "MEAN_MOTION": "12.80930136",
    "ECCENTRICITY": "0.0007929",
    "INCLINATION": "66.0422",
    "RA_OF_ASC_NODE": "70.6209",
    "ARG_OF_PERICENTER": "266.7933",
    "MEAN_ANOMALY": "93.2171",
    "EPHEMERIS_TYPE": "0",
    "ELEMENT_SET_NO": "999",
    "REV_AT_EPOCH": "6463",
    "BSTAR": "0",
    "MEAN_MOTION_DOT": "-0.00000061",
    "MEAN_MOTION_DDOT": "0",
    "FILE": "3395797",
    "TLE_LINE0": "0 S6 MICHAEL FREILICH",
    "TLE_LINE1": "1 46984U 20086A   22100.28062367 -.00000061  00000-0  00000+0 0  9993",
    "TLE_LINE2": "2 46984  66.0422  70.6209 0007929 266.7933  93.2171 12.80930136 64635",
    "OBJECT_ID": "2020-086A",
    "OBJECT_NUMBER": "46984",
    "SEMIMAJOR_AXIS": "7715.870",
    "PERIOD": "112.418",
    "APOGEE": "1343.853",
    "PERIGEE": "1331.617",
    "DECAYED": "0"
  }
]